{"type": "FeatureCollection", "features": [ {"type": "Feature", "properties": {"norad_id": 28649, "name": "IRS-P5 (CARTOSAT-1)", "group": "resource", "lat": -34.97024958430916, "lon": 179.15168950869477, "alt_km": 604.3185673495436, "timestamp": "2025-12-03T15:48:02.758216+00:00", "meta": {"OBJECT_NAME": "IRS-P5 (CARTOSAT-1)", "OBJECT_ID": "2005-017A", "EPOCH": "2025-12-03T08:23:33.623808", "MEAN_MOTION": 14.90350785, "ECCENTRICITY": 0.00017726, "INCLINATION": 97.5502, "RA_OF_ASC_NODE": 4.1796, "ARG_OF_PERICENTER": 53.0726, "MEAN_ANOMALY": 307.0655, "EPHEMERIS_TYPE": 0, "CLASSIFICATION_TYPE": "U", "NORAD_CAT_ID": 28649, "ELEMENT_SET_NO": 999, "REV_AT_EPOCH": 11464, "BSTAR": 0.00029393388, "MEAN_MOTION_DOT": 2.807e-05, "MEAN_MOTION_DDOT": 0}, "tle": {"line1": "1 28649U 05017A   25337.34969472  .00002807  00000+0  29393-3 0  9991", "line2": "2 28649  97.5502   4.1796 0001772  53.0726 307.0655 14.90350785114640"}}, "geometry": {"type": "Point", "coordinates": [179.15168950869477, -34.97024958430916]}}, {"type": "Feature", "properties": {"norad_id": 28893, "name": "SINAH 1", "group": "resource", "lat": -9.254535259213199, "lon": 107.54786175622003, "alt_km": 694.968837964775, "timestamp": "2025-12-03T15:48:02.758226+00:00", "meta": {"OBJECT_NAME": "SINAH 1", "OBJECT_ID": "2005-043D", "EPOCH": "2025-12-03T07:38:29.715072", "MEAN_MOTION": 14.63944967, "ECCENTRICITY": 0.00148195, "INCLINATION": 98.2599, "RA_OF_ASC_NODE": 105.8508, "ARG_OF_PERICENTER": 165.3211, "MEAN_ANOMALY": 194.8425, "EPHEMERIS_TYPE": 0, "CLASSIFICATION_TYPE": "U", "NORAD_CAT_ID": 28893, "ELEMENT_SET_NO": 999, "REV_AT_EPOCH": 7186, "BSTAR": 0.00016170421, "MEAN_MOTION_DOT": 7.98e-06, "MEAN_MOTION_DDOT": 0}, "tle": {"line1": "1 28893U 05043D   25337.31839948  .00000798  00000+0  16170-3 0  9998", "line2": "2 28893  98.2599 105.8508 0014819 165.3211 194.8425 14.63944967 71861"}}, "geometry": {"type": "Point", "coordinates": [107.54786175622003, -9.254535259213199]}}, {"type": "Feature", "properties": {"norad_id": 29079, "name": "EROS B", "group": "resource", "lat": -71.83904424966379, "lon": -109.34624576847044, "alt_km": 379.91705625299437, "timestamp": "2025-12-03T15:48:02.758235+00:00", "meta": {"OBJECT_NAME": "EROS B", "OBJECT_ID": "2006-014A", "EPOCH": "2025-12-03T07:02:48.202944", "MEAN_MOTION": 15.64596928, "ECCENTRICITY": 0.00022592, "INCLINATION": 97.3488, "RA_OF_ASC_NODE": 93.4429, "ARG_OF_PERICENTER": 234.2551, "MEAN_ANOMALY": 125.8498, "EPHEMERIS_TYPE": 0, "CLASSIFICATION_TYPE": "U", "NORAD_CAT_ID": 29079, "ELEMENT_SET_NO": 999, "REV_AT_EPOCH": 8932, "BSTAR": 0.0017048298, "MEAN_MOTION_DOT": 0.00167487, "MEAN_MOTION_DDOT": 0}, "tle": {"line1": "1 29079U 06014A   25337.29361346  .00167487  00000+0  17048-2 0  9996", "line2": "2 29079  97.3488  93.4429 0002259 234.2551 125.8498 15.64596928 89323"}}, "geometry": {"type": "Point", "coordinates": [-109.34624576847044, -71.83904424966379]}}, {"type": "Feature", "properties": {"norad_id": 29228, "name": "RESURS-DK 1", "group": "resource", "lat": 50.1487511575367, "lon": -80.66905320309169, "alt_km": 528.8214266055584, "timestamp": "2025-12-03T15:48:02.758245+00:00", "meta": {"OBJECT_NAME": "RESURS-DK 1", "OBJECT_ID": "2006-021A", "EPOCH": "2025-12-03T08:53:53.329632", "MEAN_MOTION": 15.12073053, "ECCENTRICITY": 0.00078268, "INCLINATION": 69.9327, "RA_OF_ASC_NODE": 126.0472, "ARG_OF_PERICENTER": 265.4771, "MEAN_ANOMALY": 94.55, "EPHEMERIS_TYPE": 0, "CLASSIFICATION_TYPE": "U", "NORAD_CAT_ID": 29228, "ELEMENT_SET_NO": 999, "REV_AT_EPOCH": 7296, "BSTAR": 0.00026849527, "MEAN_MOTION_DOT": 4.527e-05, "MEAN_MOTION_DDOT": 0}, "tle": {"line1": "1 29228U 06021A   25337.37075613  .00004527  00000+0  26850-3 0  9995", "line2": "2 29228  69.9327 126.0472 0007826 265.4771  94.5500 15.12073053 72962"}}, "geometry": {"type": "Point", "coordinates": [-80.66905320309169, 50.1487511575367]}}, {"type": "Feature", "properties": {"norad_id": 29268, "name": "ARIRANG-2 (KOMPSAT-2)", "group": "resource", "lat": -58.21979880578707, "lon": -26.25306320932885, "alt_km": 687.5921822658029, "timestamp": "2025-12-03T15:48:02.758255+00:00", "meta": {"OBJECT_NAME": "ARIRANG-2 (KOMPSAT-2)", "OBJECT_ID": "2006-031A", "EPOCH": "2025-12-03T08:42:07.055424", "MEAN_MOTION": 14.64480029, "ECCENTRICITY": 0.0014007, "INCLINATION": 97.8264, "RA_OF_ASC_NODE": 166.2926, "ARG_OF_PERICENTER": 340.1553, "MEAN_ANOMALY": 140.5658, "EPHEMERIS_TYPE": 0, "CLASSIFICATION_TYPE": "U", "NORAD_CAT_ID": 29268, "ELEMENT_SET_NO": 999, "REV_AT_EPOCH": 3281, "BSTAR": 0.00012487909, "MEAN_MOTION_DOT": 6.17e-06, "MEAN_MOTION_DDOT": 0}, "tle": {"line1": "1 29268U 06031A   25337.36258166  .00000617  00000+0  12488-3 0  9993", "line2": "2 29268  97.8264 166.2926 0014007 340.1553 140.5658 14.64480029 32811"}}, "geometry": {"type": "Point", "coordinates": [-26.25306320932885, -58.21979880578707]}}, {"type": "Feature", "properties": {"norad_id": 29709, "name": "LAPAN-TUBSAT", "group": "resource", "lat": -22.35852489751366, "lon": 144.2596465745594, "alt_km": 618.8651106597126, "timestamp": "2025-12-03T15:48:02.758264+00:00", "meta": {"OBJECT_NAME": "LAPAN-TUBSAT", "OBJECT_ID": "2007-001A", "EPOCH": "2025-12-03T06:48:40.732128", "MEAN_MOTION": 14.85647348, "ECCENTRICITY": 0.00135926, "INCLINATION": 98.1252, "RA_OF_ASC_NODE": 327.2463, "ARG_OF_PERICENTER": 102.0934, "MEAN_ANOMALY": 258.1804, "EPHEMERIS_TYPE": 0, "CLASSIFICATION_TYPE": "U", "NORAD_CAT_ID": 29709, "ELEMENT_SET_NO": 999, "REV_AT_EPOCH": 2206, "BSTAR": 0.0001283542, "MEAN_MOTION_DOT": 1.056e-05, "MEAN_MOTION_DDOT": 0}, "tle": {"line1": "1 29709U 07001A   25337.28380477  .00001056  00000+0  12835-3 0  9997", "line2": "2 29709  98.1252 327.2463 0013592 102.0934 258.1804 14.85647348 22060"}}, "geometry": {"type": "Point", "coordinates": [144.2596465745594, -22.35852489751366]}}, {"type": "Feature", "properties": {"norad_id": 31113, "name": "HAIYANG-1B", "group": "resource", "lat": 71.23816904972622, "lon": -63.241673881877595, "alt_km": 771.3336854322934, "timestamp": "2025-12-03T15:48:02.758273+00:00", "meta": {"OBJECT_NAME": "HAIYANG-1B", "OBJECT_ID": "2007-010A", "EPOCH": "2025-12-03T05:23:31.685856", "MEAN_MOTION": 14.309598, "ECCENTRICITY": 0.00145933, "INCLINATION": 98.3307, "RA_OF_ASC_NODE": 321.8964, "ARG_OF_PERICENTER": 64.2951, "MEAN_ANOMALY": 295.9738, "EPHEMERIS_TYPE": 0, "CLASSIFICATION_TYPE": "U", "NORAD_CAT_ID": 31113, "ELEMENT_SET_NO": 999, "REV_AT_EPOCH": 97260, "BSTAR": 8.9917776e-05, "MEAN_MOTION_DOT": 1.95e-06, "MEAN_MOTION_DDOT": 0}, "tle": {"line1": "1 31113U 07010A   25337.22467229  .00000195  00000+0  89918-4 0  9994", "line2": "2 31113  98.3307 321.8964 0014593  64.2951 295.9738 14.30959800972609"}}, "geometry": {"type": "Point", "coordinates": [-63.241673881877595, 71.23816904972622]}}, {"type": "Feature", "properties": {"norad_id": 31598, "name": "COSMO-SKYMED 1", "group": "resource", "lat": -10.435577746477259, "lon": -18.46398266991059, "alt_km": 584.9723578301328, "timestamp": "2025-12-03T15:48:02.758283+00:00", "meta": {"OBJECT_NAME": "COSMO-SKYMED 1", "OBJECT_ID": "2007-023A", "EPOCH": "2025-12-03T08:31:46.667136", "MEAN_MOTION": 14.95654693, "ECCENTRICITY": 0.00014384, "INCLINATION": 97.8842, "RA_OF_ASC_NODE": 162.6937, "ARG_OF_PERICENTER": 81.2059, "MEAN_ANOMALY": 278.9325, "EPHEMERIS_TYPE": 0, "CLASSIFICATION_TYPE": "U", "NORAD_CAT_ID": 31598, "ELEMENT_SET_NO": 999, "REV_AT_EPOCH": 50, "BSTAR": 0.00046502731, "MEAN_MOTION_DOT": 5.112e-05, "MEAN_MOTION_DDOT": 0}, "tle": {"line1": "1 31598U 07023A   25337.35540124  .00005112  00000+0  46503-3 0  9991", "line2": "2 31598  97.8842 162.6937 0001438  81.2059 278.9325 14.95654693   504"}}, "geometry": {"type": "Point", "coordinates": [-18.46398266991059, -10.435577746477259]}}, {"type": "Feature", "properties": {"norad_id": 31698, "name": "TERRASAR-X", "group": "resource", "lat": 18.251265789238715, "lon": 165.64400112042188, "alt_km": 508.5532284135161, "timestamp": "2025-12-03T15:48:02.758292+00:00", "meta": {"OBJECT_NAME": "TERRASAR-X", "OBJECT_ID": "2007-026A", "EPOCH": "2025-12-02T13:47:56.806656", "MEAN_MOTION": 15.19154546, "ECCENTRICITY": 0.0001916, "INCLINATION": 97.4445, "RA_OF_ASC_NODE": 342.105, "ARG_OF_PERICENTER": 86.6664, "MEAN_ANOMALY": 273.4789, "EPHEMERIS_TYPE": 0, "CLASSIFICATION_TYPE": "U", "NORAD_CAT_ID": 31698, "ELEMENT_SET_NO": 999, "REV_AT_EPOCH": 2337, "BSTAR": 8.5350444e-05, "MEAN_MOTION_DOT": 1.726e-05, "MEAN_MOTION_DDOT": 0}, "tle": {"line1": "1 31698U 07026A   25336.57496304  .00001726  00000+0  85350-4 0  9999", "line2": "2 31698  97.4445 342.1050 0001916  86.6664 273.4789 15.19154546 23376"}}, "geometry": {"type": "Point", "coordinates": [165.64400112042188, 18.251265789238715]}}, {"type": "Feature", "properties": {"norad_id": 32060, "name": "WORLDVIEW-1 (WV-1)", "group": "resource", "lat": -14.20877316128929, "lon": 97.1505169010747, "alt_km": 497.33121577593465, "timestamp": "2025-12-03T15:48:02.758301+00:00", "meta": {"OBJECT_NAME": "WORLDVIEW-1 (WV-1)", "OBJECT_ID": "2007-041A", "EPOCH": "2025-12-03T07:59:12.125472", "MEAN_MOTION": 15.24439924, "ECCENTRICITY": 7.519e-05, "INCLINATION": 97.3839, "RA_OF_ASC_NODE": 94.948, "ARG_OF_PERICENTER": 93.3039, "MEAN_ANOMALY": 266.8285, "EPHEMERIS_TYPE": 0, "CLASSIFICATION_TYPE": "U", "NORAD_CAT_ID": 32060, "ELEMENT_SET_NO": 999, "REV_AT_EPOCH": 1304, "BSTAR": 0.00048185214, "MEAN_MOTION_DOT": 0.00011762, "MEAN_MOTION_DDOT": 0}, "tle": {"line1": "1 32060U 07041A   25337.33277923  .00011762  00000+0  48185-3 0  9994", "line2": "2 32060  97.3839  94.9480 0000751  93.3039 266.8285 15.24439924 13044"}}, "geometry": {"type": "Point", "coordinates": [97.1505169010747, -14.20877316128929]}}]}